[{"OBJECT_NAME":"IRIDIUM 107","OBJECT_ID":"2017-061F","EPOCH":"2026-03-09T22:26:14.574624","MEAN_MOTION":14.34217551,"ECCENTRICITY":0.00017516,"INCLINATION":86.3913,"RA_OF_ASC_NODE":66.7602,"ARG_OF_PERICENTER":87.4442,"MEAN_ANOMALY":272.6954,"EPHEMERIS_TYPE":0,"CLASSIFICATION_TYPE":"U","NORAD_CAT_ID":42960,"ELEMENT_SET_NO":999,"REV_AT_EPOCH":44059,"BSTAR":-3.536384e-6,"MEAN_MOTION_DOT":1.0e-7,"MEAN_MOTION_DDOT":0},{"OBJECT_NAME":"FENGYUN 1C DEB","OBJECT_ID":"1999-025DLT","EPOCH":"2026-03-03T20:04:12.173664","MEAN_MOTION":14.21247784,"ECCENTRICITY":0.0069889,"INCLINATION":98.5855,"RA_OF_ASC_NODE":70.7881,"ARG_OF_PERICENTER":62.7162,"MEAN_ANOMALY":298.1111,"EPHEMERIS_TYPE":0,"CLASSIFICATION_TYPE":"U","NORAD_CAT_ID":35139,"ELEMENT_SET_NO":999,"REV_AT_EPOCH":65305,"BSTAR":0.00050768,"MEAN_MOTION_DOT":1.091e-5,"MEAN_MOTION_DDOT":0}]
